BSAT-4B                 
1 46112U 20056A   20252.48539924 -.00000343  00000-0  00000-0 0  9993
2 46112   0.0440 306.1230 0004303   9.7562 312.2846  1.00338020   269
MEV-2                   
1 46113U 20056B   20250.04413223 -.00000085  00000-0  00000+0 0  9999
2 46113   3.6163 121.2949 5679467 184.8189 113.1302  1.89665302   424
GALAXY 30               
1 46114U 20056C   20252.91207005 -.00000182  00000-0  00000-0 0  9996
2 46114   0.0164 355.8060 0000519 224.9778 180.5231  1.00273007   291
ARIANE 5 DEB [SYLDA]    
1 46115U 20056D   20252.29396528  .00003983  00000-0  20023-2 0  9997
2 46115   6.0448 115.1203 7268183 197.0593 111.6007  2.28324408   530
ARIANE 5 R/B            
1 46116U 20056E   20252.69408877  .00000162  00000-0  18735-3 0  9997
2 46116   5.8145 117.4740 7268417 194.8132 119.6073  2.28681443   555
STARLINK-1585           
1 46117U 20057A   20252.91667824 -.00024481  00000-0 -22764-3 0  9992
2 46117  52.9979 335.2730 0008248 284.7461 296.1921 15.66240683  1775
STARLINK-1588           
1 46118U 20057B   20252.91667824 -.00011627  00000-0 -12120-3 0  9996
2 46118  52.9999 335.6233 0001112  46.8343   9.5493 15.62778613  4036
STARLINK-1593           
1 46119U 20057C   20253.50001157 -.00105592  00000-0 -11590-2 0  9998
2 46119  52.9998 332.7577 0001315  51.5635  52.3699 15.62826344  4126
STARLINK-1601           
1 46120U 20057D   20253.50001157 -.00082015  00000-0 -89761-3 0  9990
2 46120  52.9994 332.7468 0001494  60.0576  50.2930 15.62788903  4123
STARLINK-1602           
1 46121U 20057E   20253.50001157 -.00003335  00000-0 -26401-4 0  9992
2 46121  52.9983 332.4109 0001183  51.3929 222.4922 15.66238051  4123
STARLINK-1604           
1 46122U 20057F   20253.50001157 -.00000912  00000-0 -40913-5 0  9996
2 46122  53.0001 332.7406 0004136 289.7546 183.9161 15.62720674  4122
STARLINK-1605           
1 46123U 20057G   20253.16667824 -.00068053  00000-0 -74089-3 0  9997
2 46123  53.0003 334.3599 0007680 273.4253 128.7984 15.62801058  4078
STARLINK-1614           
1 46124U 20057H   20253.50001157 -.00005628  00000-0 -55556-4 0  9995
2 46124  52.9998 332.7340 0004367 282.2291 193.8210 15.62769879  4120
STARLINK-1618           
1 46125U 20057J   20253.50001157 -.00061039  00000-0 -66425-3 0  9990
2 46125  52.9996 332.7532 0001438  47.9620  54.6650 15.62811039  4128
STARLINK-1619           
1 46126U 20057K   20253.50001157  .00000423  00000-0  10455-4 0  9992
2 46126  52.9992 332.7477 0001287  55.4023  50.9941 15.62765476  4121
STARLINK-1621           
1 46127U 20057L   20253.16667824  .00045710  00000-0  48107-3 0  9996
2 46127  52.9994 334.3529 0002035 318.9233  84.4821 15.63852775  4075
STARLINK-1622           
1 46128U 20057M   20252.91667824 -.00025210  00000-0 -23657-3 0  9997
2 46128  52.9979 335.2728 0001114  37.3952 182.2899 15.66091395  1779
STARLINK-1623           
1 46129U 20057N   20252.84046388 -.00032846  00000-0 -35924-3 0  9999
2 46129  53.0008 335.9705 0007708 272.2809  87.7321 15.62355008  3369
STARLINK-1624           
1 46130U 20057P   20253.50001157  .00001908  00000-0  26715-4 0  9992
2 46130  53.0001 332.7262 0001813 313.7786 168.6922 15.62714547  4121
STARLINK-1625           
1 46131U 20057Q   20252.91667824 -.00024962  00000-0 -23248-3 0  9990
2 46131  52.9984 335.2769 0001591  59.1567 165.5629 15.66270098  1771
STARLINK-1630           
1 46132U 20057R   20253.50001157 -.00064277  00000-0 -70071-3 0  9997
2 46132  53.0004 332.7491 0001254  50.2231  58.8354 15.62788510  4127
STARLINK-1637           
1 46133U 20057S   20252.91667824 -.00027419  00000-0 -25579-3 0  9991
2 46133  52.9981 335.2414 0002436 311.1056 287.2421 15.66283706  1772
STARLINK-1638           
1 46134U 20057T   20253.16667824  .00054855  00000-0  60070-3 0  9997
2 46134  53.0004 334.3970 0004754 281.7729 103.9215 15.62749527  4077
STARLINK-1639           
1 46135U 20057U   20252.91667824 -.00049298  00000-0 -53508-3 0  9995
2 46135  52.9995 335.5773 0001201  55.0303  22.5179 15.62787865  1779
STARLINK-1643           
1 46136U 20057V   20253.16667824 -.01177139  00000-0 -14049-1 0  9996
2 46136  52.9985 334.3310 0001351  49.4318  21.6595 15.63127233  4078
STARLINK-1586           
1 46137U 20057W   20253.50001157 -.00002384  00000-0 -17290-4 0  9998
2 46137  52.9996 332.3781 0001340  47.8148 239.6698 15.66315341  4125
STARLINK-1590           
1 46138U 20057X   20253.50001157 -.00000672  00000-0 -14988-5 0  9999
2 46138  52.9986 332.7589 0001610  60.5476  40.8762 15.62753081  4128
STARLINK-1592           
1 46139U 20057Y   20253.50001157 -.00035836  00000-0 -38675-3 0  9997
2 46139  53.0008 332.7298 0001368  56.5092  56.3257 15.62785704  4120
STARLINK-1594           
1 46140U 20057Z   20253.50001157 -.00011225  00000-0 -11085-3 0  9991
2 46140  52.9990 332.7032 0004949 293.3802 194.8672 15.64058858  4128
STARLINK-1596           
1 46141U 20057AA  20253.50001157 -.00107778  00000-0 -11825-2 0  9992
2 46141  52.9991 332.7194 0004910 282.7106 197.2280 15.62827508  4122
STARLINK-1597           
1 46142U 20057AB  20253.16667824 -.01099500  00000-0 -14517-1 0  9998
2 46142  52.9966 334.3963 0001361  46.2759 351.7583 15.60361596  4076
STARLINK-1599           
1 46143U 20057AC  20252.91667824 -.00024711  00000-0 -23027-3 0  9990
2 46143  52.9992 335.2361 0001211  42.4865 198.5542 15.66251710  1776
STARLINK-1606           
1 46144U 20057AD  20253.50001157 -.00002672  00000-0 -20036-4 0  9998
2 46144  53.0000 332.3970 0001486  57.1553 222.0760 15.66290085  4129
STARLINK-1607           
1 46145U 20057AE  20253.50001157 -.00075463  00000-0 -86984-3 0  9990
2 46145  53.0004 332.7192 0001366  54.8623  82.0939 15.61425228  4129
STARLINK-1608           
1 46146U 20057AF  20253.50001157  .00001084  00000-0  17662-4 0  9995
2 46146  53.0012 332.7324 0001322  58.2102  57.0411 15.62777372  4126
STARLINK-1611           
1 46147U 20057AG  20253.50001157 -.00117520  00000-0 -12927-2 0  9998
2 46147  53.0017 332.7258 0002373 320.2418 161.4177 15.62818226  4120
STARLINK-1616           
1 46148U 20057AH  20252.91667824 -.00025124  00000-0 -23400-3 0  9999
2 46148  53.0004 335.2794 0001251  53.6921 165.6550 15.66274400  1773
STARLINK-1620           
1 46149U 20057AJ  20253.50001157  .05336729  00000-0  45485-1 0  9991
2 46149  52.9986 332.3604 0001856  25.9357 272.3316 15.65164530  4124
STARLINK-1629           
1 46150U 20057AK  20253.50001157  .00001312  00000-0  20216-4 0  9993
2 46150  53.0012 332.7271 0005674 296.7255 179.9747 15.62749410  4122
STARLINK-1631           
1 46151U 20057AL  20253.50001157  .00000528  00000-0  84388-5 0  9993
2 46151  52.9980 331.4759 0002138  63.7232 298.0291 15.72344019  4136
STARLINK-1634           
1 46152U 20057AM  20253.50001157  .00000252  00000-0  85897-5 0  9994
2 46152  52.9986 332.7534 0001360  56.4442  48.8099 15.62750069  4127
STARLINK-1636           
1 46153U 20057AN  20253.50001157 -.00004246  00000-0 -27019-4 0  9995
2 46153  52.9973 331.5018 0001191  77.4562 270.6503 15.72215464  4138
STARLINK-1642           
1 46154U 20057AP  20253.50001157 -.00004420  00000-0 -28311-4 0  9996
2 46154  52.9974 331.4883 0000819  47.3812 306.8853 15.72221371  4133
STARLINK-1667           
1 46155U 20057AQ  20252.91667824 -.00024440  00000-0 -22770-3 0  9996
2 46155  52.9989 335.2047 0001198  53.4297 203.1580 15.66249018  1774
STARLINK-1545           
1 46156U 20057AR  20253.50001157 -.00003852  00000-0 -31299-4 0  9995
2 46156  52.9997 332.4080 0001489  57.3913 217.3226 15.66248654  4122
STARLINK-1587           
1 46157U 20057AS  20253.50001157 -.00003627  00000-0 -29138-4 0  9995
2 46157  52.9993 332.3375 0001329  38.8440 269.8273 15.66267678  4128
STARLINK-1589           
1 46158U 20057AT  20253.16667824  .00085316  00000-0  94267-3 0  9994
2 46158  52.9982 334.4022 0001359  56.5634 338.2884 15.62344129  4070
STARLINK-1595           
1 46159U 20057AU  20253.16667824 -.01011962  00000-0 -13002-1 0  9990
2 46159  52.9996 334.4310 0001358  45.7862 334.7546 15.61279908  4075
STARLINK-1598           
1 46160U 20057AV  20252.91667824 -.00024913  00000-0 -23212-3 0  9999
2 46160  52.9996 335.2473 0001041  24.2620 215.2291 15.66260447  1776
STARLINK-1600           
1 46161U 20057AW  20252.91667824 -.00024758  00000-0 -23079-3 0  9998
2 46161  52.9975 335.2660 0001537  67.2841 159.4115 15.66242500  1778
STARLINK-1603           
1 46162U 20057AX  20252.91667824 -.00024804  00000-0 -23106-3 0  9992
2 46162  52.9995 335.2355 0001078  26.7993 215.6473 15.66261845  1775
STARLINK-1610           
1 46163U 20057AY  20252.91667824 -.00024260  00000-0 -22554-3 0  9995
2 46163  52.9996 335.2303 0001409  63.0579 184.6441 15.66296268  1779
STARLINK-1612           
1 46164U 20057AZ  20252.91667824 -.00024572  00000-0 -22879-3 0  9992
2 46164  52.9992 335.2210 0001438 330.2972 279.8557 15.66266779  1770
STARLINK-1613           
1 46165U 20057BA  20253.50001157 -.00105492  00000-0 -11578-2 0  9994
2 46165  53.0013 332.7499 0001424  57.3139  50.4330 15.62827921  4127
STARLINK-1615           
1 46166U 20057BB  20253.16667824 -.01092538  00000-0 -14336-1 0  9997
2 46166  52.9974 334.4013 0001420  43.1437 354.1368 15.60504883  4079
STARLINK-1626           
1 46167U 20057BC  20252.91667824 -.00011220  00000-0 -11686-3 0  9995
2 46167  52.9991 335.5968 0001780 315.1306 112.7636 15.62752397  1773
STARLINK-1627           
1 46168U 20057BD  20253.50001157 -.00109471  00000-0 -12034-2 0  9996
2 46168  52.9994 332.7317 0001920 307.2224 167.6732 15.62802400  4120
STARLINK-1628           
1 46169U 20057BE  20253.50001157  .00000581  00000-0  12180-4 0  9991
2 46169  53.0011 332.7227 0001304  50.9819  63.0900 15.62759837  4122
STARLINK-1632           
1 46170U 20057BF  20252.91667824 -.00029435  00000-0 -31657-3 0  9996
2 46170  52.9995 335.5885 0001099  42.0776  31.6730 15.62770327  1776
